{"type": "FeatureCollection", "features": [ {"type": "Feature", "properties": {"norad_id": 52912, "name": "GAOFEN-12 03", "group": "resource", "lat": -5.000820606506505, "lon": -112.7695532304376, "alt_km": 633.3261588929627, "timestamp": "2025-12-25T11:37:44.079538+00:00", "meta": {"OBJECT_NAME": "GAOFEN-12 03", "OBJECT_ID": "2022-069A", "EPOCH": "2025-12-25T05:09:34.698816", "MEAN_MOTION": 14.79639088, "ECCENTRICITY": 0.0001839, "INCLINATION": 97.8477, "RA_OF_ASC_NODE": 246.2757, "ARG_OF_PERICENTER": 48.4007, "MEAN_ANOMALY": 311.7362, "EPHEMERIS_TYPE": 0, "CLASSIFICATION_TYPE": "U", "NORAD_CAT_ID": 52912, "ELEMENT_SET_NO": 999, "REV_AT_EPOCH": 18888, "BSTAR": 0.00019521, "MEAN_MOTION_DOT": 1.413e-05, "MEAN_MOTION_DDOT": 0}, "tle": {"line1": "1 52912U 22069A   25359.21498494  .00001413  00000+0  19521-3 0  9992", "line2": "2 52912  97.8477 246.2757 0001839  48.4007 311.7362 14.79639088188881"}}, "geometry": {"type": "Point", "coordinates": [-112.7695532304376, -5.000820606506505]}}, {"type": "Feature", "properties": {"norad_id": 54754, "name": "SWOT", "group": "resource", "lat": -61.79124535211347, "lon": -114.40478555531615, "alt_km": 900.4526405039078, "timestamp": "2025-12-25T11:37:44.079548+00:00", "meta": {"OBJECT_NAME": "SWOT", "OBJECT_ID": "2022-173A", "EPOCH": "2025-12-25T03:21:42.276096", "MEAN_MOTION": 14.00168703, "ECCENTRICITY": 4.12e-05, "INCLINATION": 77.6108, "RA_OF_ASC_NODE": 270.2512, "ARG_OF_PERICENTER": 82.1498, "MEAN_ANOMALY": 277.97, "EPHEMERIS_TYPE": 0, "CLASSIFICATION_TYPE": "U", "NORAD_CAT_ID": 54754, "ELEMENT_SET_NO": 999, "REV_AT_EPOCH": 15479, "BSTAR": 7.9798e-05, "MEAN_MOTION_DOT": 1.15e-06, "MEAN_MOTION_DDOT": 0}, "tle": {"line1": "1 54754U 22173A   25359.14007264  .00000115  00000+0  79798-4 0  9998", "line2": "2 54754  77.6108 270.2512 0000412  82.1498 277.9700 14.00168703154792"}}, "geometry": {"type": "Point", "coordinates": [-114.40478555531615, -61.79124535211347]}}, {"type": "Feature", "properties": {"norad_id": 57654, "name": "GAOFEN-12 04", "group": "resource", "lat": 10.692632286582942, "lon": 96.55365817509602, "alt_km": 631.6851976093294, "timestamp": "2025-12-25T11:37:44.079558+00:00", "meta": {"OBJECT_NAME": "GAOFEN-12 04", "OBJECT_ID": "2023-123A", "EPOCH": "2025-12-25T04:22:32.636352", "MEAN_MOTION": 14.79734899, "ECCENTRICITY": 0.0001207, "INCLINATION": 97.9128, "RA_OF_ASC_NODE": 274.7512, "ARG_OF_PERICENTER": 79.9075, "MEAN_ANOMALY": 280.2273, "EPHEMERIS_TYPE": 0, "CLASSIFICATION_TYPE": "U", "NORAD_CAT_ID": 57654, "ELEMENT_SET_NO": 999, "REV_AT_EPOCH": 12689, "BSTAR": 0.00019457, "MEAN_MOTION_DOT": 1.411e-05, "MEAN_MOTION_DDOT": 0}, "tle": {"line1": "1 57654U 23123A   25359.18232218  .00001411  00000+0  19457-3 0  9994", "line2": "2 57654  97.9128 274.7512 0001207  79.9075 280.2273 14.79734899126891"}}, "geometry": {"type": "Point", "coordinates": [96.55365817509602, 10.692632286582942]}}, {"type": "Feature", "properties": {"norad_id": 59065, "name": "PARS 1", "group": "resource", "lat": 41.30816457482825, "lon": 157.3079781055739, "alt_km": 441.1971126443523, "timestamp": "2025-12-25T11:37:44.079568+00:00", "meta": {"OBJECT_NAME": "PARS 1", "OBJECT_ID": "2024-039Q", "EPOCH": "2025-12-25T04:47:58.356672", "MEAN_MOTION": 15.4125446, "ECCENTRICITY": 0.0011538, "INCLINATION": 97.4655, "RA_OF_ASC_NODE": 330.3999, "ARG_OF_PERICENTER": 34.1291, "MEAN_ANOMALY": 326.0695, "EPHEMERIS_TYPE": 0, "CLASSIFICATION_TYPE": "U", "NORAD_CAT_ID": 59065, "ELEMENT_SET_NO": 999, "REV_AT_EPOCH": 10180, "BSTAR": 0.00032155, "MEAN_MOTION_DOT": 0.0001332, "MEAN_MOTION_DDOT": 0}, "tle": {"line1": "1 59065U 24039Q   25359.19998098  .00013320  00000+0  32155-3 0  9997", "line2": "2 59065  97.4655 330.3999 0011538  34.1291 326.0695 15.41254460101800"}}, "geometry": {"type": "Point", "coordinates": [157.3079781055739, 41.30816457482825]}}, {"type": "Feature", "properties": {"norad_id": 59371, "name": "RESURS-P 4", "group": "resource", "lat": -48.12625646208288, "lon": 117.38318524965294, "alt_km": 476.6263845063004, "timestamp": "2025-12-25T11:37:44.079578+00:00", "meta": {"OBJECT_NAME": "RESURS-P 4", "OBJECT_ID": "2024-061A", "EPOCH": "2025-12-25T04:21:53.365824", "MEAN_MOTION": 15.32194589, "ECCENTRICITY": 8.02e-05, "INCLINATION": 97.2564, "RA_OF_ASC_NODE": 305.2584, "ARG_OF_PERICENTER": 81.9367, "MEAN_ANOMALY": 278.1966, "EPHEMERIS_TYPE": 0, "CLASSIFICATION_TYPE": "U", "NORAD_CAT_ID": 59371, "ELEMENT_SET_NO": 999, "REV_AT_EPOCH": 9711, "BSTAR": 0.00014128, "MEAN_MOTION_DOT": 4.315e-05, "MEAN_MOTION_DDOT": 0}, "tle": {"line1": "1 59371U 24061A   25359.18186766  .00004315  00000+0  14128-3 0  9996", "line2": "2 59371  97.2564 305.2584 0000802  81.9367 278.1966 15.32194589 97115"}}, "geometry": {"type": "Point", "coordinates": [117.38318524965294, -48.12625646208288]}}, {"type": "Feature", "properties": {"norad_id": 59625, "name": "LEGION 1", "group": "resource", "lat": 77.98547727011737, "lon": -67.62129180154747, "alt_km": 511.1427566804896, "timestamp": "2025-12-25T11:37:44.079588+00:00", "meta": {"OBJECT_NAME": "LEGION 1", "OBJECT_ID": "2024-081A", "EPOCH": "2025-12-25T03:16:28.704576", "MEAN_MOTION": 15.16599527, "ECCENTRICITY": 0.0003597, "INCLINATION": 97.5195, "RA_OF_ASC_NODE": 73.669, "ARG_OF_PERICENTER": 259.4164, "MEAN_ANOMALY": 100.6664, "EPHEMERIS_TYPE": 0, "CLASSIFICATION_TYPE": "U", "NORAD_CAT_ID": 59625, "ELEMENT_SET_NO": 999, "REV_AT_EPOCH": 9115, "BSTAR": 0.00027361, "MEAN_MOTION_DOT": 5.279e-05, "MEAN_MOTION_DDOT": 0}, "tle": {"line1": "1 59625U 24081A   25359.13644334  .00005279  00000+0  27361-3 0  9998", "line2": "2 59625  97.5195  73.6690 0003597 259.4164 100.6664 15.16599527 91150"}}, "geometry": {"type": "Point", "coordinates": [-67.62129180154747, 77.98547727011737]}}, {"type": "Feature", "properties": {"norad_id": 59626, "name": "LEGION 2", "group": "resource", "lat": -77.69831559329538, "lon": 111.38580368634125, "alt_km": 520.4072324406907, "timestamp": "2025-12-25T11:37:44.079598+00:00", "meta": {"OBJECT_NAME": "LEGION 2", "OBJECT_ID": "2024-081B", "EPOCH": "2025-12-25T02:28:52.891680", "MEAN_MOTION": 15.16611621, "ECCENTRICITY": 0.0005791, "INCLINATION": 97.5198, "RA_OF_ASC_NODE": 73.7243, "ARG_OF_PERICENTER": 240.2159, "MEAN_ANOMALY": 119.8499, "EPHEMERIS_TYPE": 0, "CLASSIFICATION_TYPE": "U", "NORAD_CAT_ID": 59626, "ELEMENT_SET_NO": 999, "REV_AT_EPOCH": 9115, "BSTAR": 0.00030479, "MEAN_MOTION_DOT": 5.892e-05, "MEAN_MOTION_DDOT": 0}, "tle": {"line1": "1 59626U 24081B   25359.10338995  .00005892  00000+0  30479-3 0  9994", "line2": "2 59626  97.5198  73.7243 0005791 240.2159 119.8499 15.16611621 91157"}}, "geometry": {"type": "Point", "coordinates": [111.38580368634125, -77.69831559329538]}}, {"type": "Feature", "properties": {"norad_id": 60182, "name": "ALOS-4 (DAICHI-4)", "group": "resource", "lat": 37.82322885472895, "lon": 87.94377177736887, "alt_km": 627.7934336070239, "timestamp": "2025-12-25T11:37:44.079607+00:00", "meta": {"OBJECT_NAME": "ALOS-4 (DAICHI-4)", "OBJECT_ID": "2024-123A", "EPOCH": "2025-12-25T04:57:49.756896", "MEAN_MOTION": 14.7946926, "ECCENTRICITY": 0.0001379, "INCLINATION": 97.9222, "RA_OF_ASC_NODE": 93.8761, "ARG_OF_PERICENTER": 101.0176, "MEAN_ANOMALY": 259.1191, "EPHEMERIS_TYPE": 0, "CLASSIFICATION_TYPE": "U", "NORAD_CAT_ID": 60182, "ELEMENT_SET_NO": 999, "REV_AT_EPOCH": 8015, "BSTAR": 0.00017183, "MEAN_MOTION_DOT": 1.232e-05, "MEAN_MOTION_DDOT": 0}, "tle": {"line1": "1 60182U 24123A   25359.20682589  .00001232  00000+0  17183-3 0  9993", "line2": "2 60182  97.9222  93.8761 0001379 101.0176 259.1191 14.79469260 80150"}}, "geometry": {"type": "Point", "coordinates": [87.94377177736887, 37.82322885472895]}}, {"type": "Feature", "properties": {"norad_id": 60452, "name": "LEGION 3", "group": "resource", "lat": 33.49282172210986, "lon": -76.73203995203747, "alt_km": 522.0351273776723, "timestamp": "2025-12-25T11:37:44.079617+00:00", "meta": {"OBJECT_NAME": "LEGION 3", "OBJECT_ID": "2024-146A", "EPOCH": "2025-12-25T01:54:49.497120", "MEAN_MOTION": 15.15883235, "ECCENTRICITY": 0.0015746, "INCLINATION": 45.0002, "RA_OF_ASC_NODE": 243.9747, "ARG_OF_PERICENTER": 264.4284, "MEAN_ANOMALY": 95.4798, "EPHEMERIS_TYPE": 0, "CLASSIFICATION_TYPE": "U", "NORAD_CAT_ID": 60452, "ELEMENT_SET_NO": 999, "REV_AT_EPOCH": 7560, "BSTAR": 0.00029588, "MEAN_MOTION_DOT": 5.515e-05, "MEAN_MOTION_DDOT": 0}, "tle": {"line1": "1 60452U 24146A   25359.07973955  .00005515  00000+0  29588-3 0  9993", "line2": "2 60452  45.0002 243.9747 0015746 264.4284  95.4798 15.15883235 75600"}}, "geometry": {"type": "Point", "coordinates": [-76.73203995203747, 33.49282172210986]}}, {"type": "Feature", "properties": {"norad_id": 60453, "name": "LEGION 4", "group": "resource", "lat": 33.27001233080979, "lon": 14.562096990761942, "alt_km": 508.09860024228055, "timestamp": "2025-12-25T11:37:44.079628+00:00", "meta": {"OBJECT_NAME": "LEGION 4", "OBJECT_ID": "2024-146B", "EPOCH": "2025-12-25T01:55:00.859584", "MEAN_MOTION": 15.15954828, "ECCENTRICITY": 0.0008122, "INCLINATION": 45.0396, "RA_OF_ASC_NODE": 335.7607, "ARG_OF_PERICENTER": 19.8164, "MEAN_ANOMALY": 340.303, "EPHEMERIS_TYPE": 0, "CLASSIFICATION_TYPE": "U", "NORAD_CAT_ID": 60453, "ELEMENT_SET_NO": 999, "REV_AT_EPOCH": 7445, "BSTAR": 0.00034587, "MEAN_MOTION_DOT": 6.492e-05, "MEAN_MOTION_DDOT": 0}, "tle": {"line1": "1 60453U 24146B   25359.07987106  .00006492  00000+0  34587-3 0  9997", "line2": "2 60453  45.0396 335.7607 0008122  19.8164 340.3030 15.15954828 74451"}}, "geometry": {"type": "Point", "coordinates": [14.562096990761942, 33.27001233080979]}}]}